CCSDS_OMM_VERS = 2.0
CREATION_DATE  = 
ORIGINATOR     = 

OBJECT_NAME    = ISS OBJECT XW
OBJECT_ID      = 1998-067XW
CENTER_NAME    = EARTH
REF_FRAME      = TEME
TIME_SYSTEM    = UTC
MEAN_ELEMENT_THEORY = SGP/SGP4

EPOCH          = 2026-02-17T08:17:46.568832
MEAN_MOTION    = 15.63452131
ECCENTRICITY   = .0002813
INCLINATION    = 51.6262
RA_OF_ASC_NODE = 168.8010
ARG_OF_PERICENTER = 346.6641
MEAN_ANOMALY   = 13.4279

EPHEMERIS_TYPE = 0
CLASSIFICATION_TYPE = U
NORAD_CAT_ID   = 66910
ELEMENT_SET_NO = 999
REV_AT_EPOCH   = 1199
BSTAR          = .11943E-2
MEAN_MOTION_DOT = .113595E-2
MEAN_MOTION_DDOT = 0

CCSDS_OMM_VERS = 2.0
CREATION_DATE  = 
ORIGINATOR     = 

OBJECT_NAME    = ISS OBJECT XX
OBJECT_ID      = 1998-067XX
CENTER_NAME    = EARTH
REF_FRAME      = TEME
TIME_SYSTEM    = UTC
MEAN_ELEMENT_THEORY = SGP/SGP4

EPOCH          = 2026-02-17T08:19:59.883168
MEAN_MOTION    = 15.67016964
ECCENTRICITY   = .0004609
INCLINATION    = 51.6243
RA_OF_ASC_NODE = 168.0569
ARG_OF_PERICENTER = 337.9122
MEAN_ANOMALY   = 22.1675

EPHEMERIS_TYPE = 0
CLASSIFICATION_TYPE = U
NORAD_CAT_ID   = 66911
ELEMENT_SET_NO = 999
REV_AT_EPOCH   = 1199
BSTAR          = .15925E-2
MEAN_MOTION_DOT = .176276E-2
MEAN_MOTION_DDOT = 0

CCSDS_OMM_VERS = 2.0
CREATION_DATE  = 
ORIGINATOR     = 

OBJECT_NAME    = ISS OBJECT XY
OBJECT_ID      = 1998-067XY
CENTER_NAME    = EARTH
REF_FRAME      = TEME
TIME_SYSTEM    = UTC
MEAN_ELEMENT_THEORY = SGP/SGP4

EPOCH          = 2026-02-17T11:44:57.812064
MEAN_MOTION    = 15.60137894
ECCENTRICITY   = .0000976
INCLINATION    = 51.6286
RA_OF_ASC_NODE = 169.0212
ARG_OF_PERICENTER = 353.0071
MEAN_ANOMALY   = 7.0908

EPHEMERIS_TYPE = 0
CLASSIFICATION_TYPE = U
NORAD_CAT_ID   = 66912
ELEMENT_SET_NO = 999
REV_AT_EPOCH   = 1199
BSTAR          = .10138E-2
MEAN_MOTION_DOT = .84374E-3
MEAN_MOTION_DDOT = 0

CCSDS_OMM_VERS = 2.0
CREATION_DATE  = 
ORIGINATOR     = 

OBJECT_NAME    = ISS OBJECT XZ
OBJECT_ID      = 1998-067XZ
CENTER_NAME    = EARTH
REF_FRAME      = TEME
TIME_SYSTEM    = UTC
MEAN_ELEMENT_THEORY = SGP/SGP4

EPOCH          = 2026-02-17T11:53:30.877728
MEAN_MOTION    = 15.50177307
ECCENTRICITY   = .0010439
INCLINATION    = 51.6309
RA_OF_ASC_NODE = 172.0578
ARG_OF_PERICENTER = 120.5199
MEAN_ANOMALY   = 239.6822

EPHEMERIS_TYPE = 0
CLASSIFICATION_TYPE = U
NORAD_CAT_ID   = 67683
ELEMENT_SET_NO = 999
REV_AT_EPOCH   = 165
BSTAR          = .695E-3
MEAN_MOTION_DOT = .39734E-3
MEAN_MOTION_DDOT = 0

CCSDS_OMM_VERS = 2.0
CREATION_DATE  = 
ORIGINATOR     = 

OBJECT_NAME    = GXIBA-1
OBJECT_ID      = 1998-067YA
CENTER_NAME    = EARTH
REF_FRAME      = TEME
TIME_SYSTEM    = UTC
MEAN_ELEMENT_THEORY = SGP/SGP4

EPOCH          = 2026-02-17T08:40:31.734624
MEAN_MOTION    = 15.51181668
ECCENTRICITY   = .0011997
INCLINATION    = 51.6312
RA_OF_ASC_NODE = 172.6641
ARG_OF_PERICENTER = 112.8351
MEAN_ANOMALY   = 247.3906

EPHEMERIS_TYPE = 0
CLASSIFICATION_TYPE = U
NORAD_CAT_ID   = 67684
ELEMENT_SET_NO = 999
REV_AT_EPOCH   = 163
BSTAR          = .12774E-2
MEAN_MOTION_DOT = .7651E-3
MEAN_MOTION_DDOT = 0

CCSDS_OMM_VERS = 2.0
CREATION_DATE  = 
ORIGINATOR     = 

OBJECT_NAME    = CORAL
OBJECT_ID      = 1998-067YB
CENTER_NAME    = EARTH
REF_FRAME      = TEME
TIME_SYSTEM    = UTC
MEAN_ELEMENT_THEORY = SGP/SGP4

EPOCH          = 2026-02-17T08:46:26.456736
MEAN_MOTION    = 15.50340482
ECCENTRICITY   = .0012327
INCLINATION    = 51.6312
RA_OF_ASC_NODE = 172.6909
ARG_OF_PERICENTER = 115.3713
MEAN_ANOMALY   = 244.8554

EPHEMERIS_TYPE = 0
CLASSIFICATION_TYPE = U
NORAD_CAT_ID   = 67685
ELEMENT_SET_NO = 999
REV_AT_EPOCH   = 163
BSTAR          = .74765E-3
MEAN_MOTION_DOT = .43084E-3
MEAN_MOTION_DDOT = 0

CCSDS_OMM_VERS = 2.0
CREATION_DATE  = 
ORIGINATOR     = 

OBJECT_NAME    = ISS OBJECT YC
OBJECT_ID      = 1998-067YC
CENTER_NAME    = EARTH
REF_FRAME      = TEME
TIME_SYSTEM    = UTC
MEAN_ELEMENT_THEORY = SGP/SGP4

EPOCH          = 2026-02-17T08:45:07.062048
MEAN_MOTION    = 15.50543709
ECCENTRICITY   = .000779
INCLINATION    = 51.6315
RA_OF_ASC_NODE = 172.6861
ARG_OF_PERICENTER = 87.7073
MEAN_ANOMALY   = 272.4808

EPHEMERIS_TYPE = 0
CLASSIFICATION_TYPE = U
NORAD_CAT_ID   = 67686
ELEMENT_SET_NO = 999
REV_AT_EPOCH   = 163
BSTAR          = .93371E-3
MEAN_MOTION_DOT = .54294E-3
MEAN_MOTION_DDOT = 0

CCSDS_OMM_VERS = 2.0
CREATION_DATE  = 
ORIGINATOR     = 

OBJECT_NAME    = LEOPARD
OBJECT_ID      = 1998-067YD
CENTER_NAME    = EARTH
REF_FRAME      = TEME
TIME_SYSTEM    = UTC
MEAN_ELEMENT_THEORY = SGP/SGP4

EPOCH          = 2026-02-17T11:52:40.660320
MEAN_MOTION    = 15.50279822
ECCENTRICITY   = .0007844
INCLINATION    = 51.6314
RA_OF_ASC_NODE = 172.0549
ARG_OF_PERICENTER = 91.1853
MEAN_ANOMALY   = 269.0035

EPHEMERIS_TYPE = 0
CLASSIFICATION_TYPE = U
NORAD_CAT_ID   = 67687
ELEMENT_SET_NO = 999
REV_AT_EPOCH   = 157
BSTAR          = .76005E-3
MEAN_MOTION_DOT = .43637E-3
MEAN_MOTION_DDOT = 0

CCSDS_OMM_VERS = 2.0
CREATION_DATE  = 
ORIGINATOR     = 

OBJECT_NAME    = ISS OBJECT YE
OBJECT_ID      = 1998-067YE
CENTER_NAME    = EARTH
REF_FRAME      = TEME
TIME_SYSTEM    = UTC
MEAN_ELEMENT_THEORY = SGP/SGP4

EPOCH          = 2026-02-17T11:51:15.020640
MEAN_MOTION    = 15.50466901
ECCENTRICITY   = .0007738
INCLINATION    = 51.6314
RA_OF_ASC_NODE = 172.0482
ARG_OF_PERICENTER = 89.8770
MEAN_ANOMALY   = 270.3106

EPHEMERIS_TYPE = 0
CLASSIFICATION_TYPE = U
NORAD_CAT_ID   = 67688
ELEMENT_SET_NO = 999
REV_AT_EPOCH   = 157
BSTAR          = .84802E-3
MEAN_MOTION_DOT = .49101E-3
MEAN_MOTION_DDOT = 0

CCSDS_OMM_VERS = 2.0
CREATION_DATE  = 
ORIGINATOR     = 

OBJECT_NAME    = CREW DRAGON 12
OBJECT_ID      = 2026-031A
CENTER_NAME    = EARTH
REF_FRAME      = TEME
TIME_SYSTEM    = UTC
MEAN_ELEMENT_THEORY = SGP/SGP4

EPOCH          = 2026-02-17T04:23:19.361472
MEAN_MOTION    = 15.48657976
ECCENTRICITY   = .00110184
INCLINATION    = 51.6319
RA_OF_ASC_NODE = 173.7204
ARG_OF_PERICENTER = 107.0393
MEAN_ANOMALY   = 253.1803

EPHEMERIS_TYPE = 0
CLASSIFICATION_TYPE = U
NORAD_CAT_ID   = 67796
ELEMENT_SET_NO = 999
REV_AT_EPOCH   = 57
BSTAR          = .18517944E-3
MEAN_MOTION_DOT = .966E-4
MEAN_MOTION_DDOT = 0

